SL-16 R/B               
1 26070U 00006B   26129.84310262 -.00000231  00000+0 -93074-4 0  9991
2 26070  71.0029 329.2522 0014235  88.1344 272.1409 14.15833905357216
TITAN 4B R/B            
1 26474U 00047B   26129.77636887  .00001756  00000+0  11395-3 0  9996
2 26474  67.9889 228.6709 0043797 326.8206  33.0197 15.09995627402139
ENVISAT                 
1 27386U 02009A   26129.86013259  .00000063  00000+0  34222-4 0  9996
2 27386  98.3811  82.0390 0001176  91.0727 286.4388 14.39055619267974
IDEFIX & ARIANE 42P R/B 
1 27422U 02021B   26129.81474494  .00000170  00000+0  80989-4 0  9998
2 27422  98.5930  67.7174 0012158  13.4510 346.6994 14.31063452252768
AQUA                    
1 27424U 02022A   26129.86211691  .00000586  00000+0  12639-3 0  9991
2 27424  98.4256  98.3869 0002122  80.9239 309.2515 14.62098315277679
CZ-4B R/B               
1 27432U 02024C   26129.77096376  .00000024  00000+0  35412-4 0  9995
2 27432  98.8728 182.8342 0049668 208.3982 259.8424 14.14558041237879
MIDORI II (ADEOS-II)    
1 27597U 02056A   26129.84688409  .00000204  00000+0  97764-4 0  9992
2 27597  98.7855  88.7872 0001476 128.3202 231.8112 14.29327639219039
H-2A R/B                
1 27601U 02056E   26129.83930733  .00000212  00000+0  88975-4 0  9990
2 27601  98.3290  87.9170 0069804 340.5113  78.2861 14.33803257222874
CZ-4B R/B               
1 28059U 03049C   26129.72327226  .00000274  00000+0  74311-4 0  9993
2 28059  98.6898 127.0410 0049016  46.4835 314.0418 14.55071932195473
CZ-2C R/B               
1 28222U 04012C   26129.73219345  .00062634  00000+0  46642-3 0  9992
2 28222  97.7106 201.1375 0011786  88.4753 271.7859 15.72515101213840
SL-16 R/B               
1 28353U 04021B   26129.34040770  .00000055  00000+0  53216-4 0  9993
2 28353  70.9980 105.2129 0006847 295.1946  64.8466 14.14601778131410
CZ-4B R/B               
1 28415U 04035C   26129.81512693  .00005944  00000+0  20373-3 0  9996
2 28415  97.3404 163.3332 0033100 110.8486 249.6305 15.30036511189254
CZ-2C R/B               
1 28480U 04046B   26129.76779032  .00000098  00000+0  52160-4 0  9991
2 28480  98.1964  40.9443 0138895 334.7689  24.6751 14.27015977117219
