[
    {
        "OBJECT_NAME": "SL-16 R/B",
        "OBJECT_ID": "2000-006B",
        "EPOCH": "2026-05-09T20:14:04.066368",
        "MEAN_MOTION": 14.15833905,
        "ECCENTRICITY": 0.0014235,
        "INCLINATION": 71.0029,
        "RA_OF_ASC_NODE": 329.2522,
        "ARG_OF_PERICENTER": 88.1344,
        "MEAN_ANOMALY": 272.1409,
        "EPHEMERIS_TYPE": 0,
        "CLASSIFICATION_TYPE": "U",
        "NORAD_CAT_ID": 26070,
        "ELEMENT_SET_NO": 999,
        "REV_AT_EPOCH": 35721,
        "BSTAR": -9.3074e-05,
        "MEAN_MOTION_DOT": -2.31e-06,
        "MEAN_MOTION_DDOT": 0
    },
    {
        "OBJECT_NAME": "TITAN 4B R/B",
        "OBJECT_ID": "2000-047B",
        "EPOCH": "2026-05-09T18:37:58.270368",
        "MEAN_MOTION": 15.09995627,
        "ECCENTRICITY": 0.0043797,
        "INCLINATION": 67.9889,
        "RA_OF_ASC_NODE": 228.6709,
        "ARG_OF_PERICENTER": 326.8206,
        "MEAN_ANOMALY": 33.0197,
        "EPHEMERIS_TYPE": 0,
        "CLASSIFICATION_TYPE": "U",
        "NORAD_CAT_ID": 26474,
        "ELEMENT_SET_NO": 999,
        "REV_AT_EPOCH": 40213,
        "BSTAR": 0.00011395,
        "MEAN_MOTION_DOT": 1.756e-05,
        "MEAN_MOTION_DDOT": 0
    },
    {
        "OBJECT_NAME": "ENVISAT",
        "OBJECT_ID": "2002-009A",
        "EPOCH": "2026-05-09T20:38:35.455776",
        "MEAN_MOTION": 14.39055619,
        "ECCENTRICITY": 0.0001176,
        "INCLINATION": 98.3811,
        "RA_OF_ASC_NODE": 82.039,
        "ARG_OF_PERICENTER": 91.0727,
        "MEAN_ANOMALY": 286.4388,
        "EPHEMERIS_TYPE": 0,
        "CLASSIFICATION_TYPE": "U",
        "NORAD_CAT_ID": 27386,
        "ELEMENT_SET_NO": 999,
        "REV_AT_EPOCH": 26797,
        "BSTAR": 3.4222e-05,
        "MEAN_MOTION_DOT": 6.3e-07,
        "MEAN_MOTION_DDOT": 0
    },
    {
        "OBJECT_NAME": "IDEFIX & ARIANE 42P R/B",
        "OBJECT_ID": "2002-021B",
        "EPOCH": "2026-05-09T19:33:13.962816",
        "MEAN_MOTION": 14.31063452,
        "ECCENTRICITY": 0.0012158,
        "INCLINATION": 98.593,
        "RA_OF_ASC_NODE": 67.7174,
        "ARG_OF_PERICENTER": 13.451,
        "MEAN_ANOMALY": 346.6994,
        "EPHEMERIS_TYPE": 0,
        "CLASSIFICATION_TYPE": "U",
        "NORAD_CAT_ID": 27422,
        "ELEMENT_SET_NO": 999,
        "REV_AT_EPOCH": 25276,
        "BSTAR": 8.0989e-05,
        "MEAN_MOTION_DOT": 1.7e-06,
        "MEAN_MOTION_DDOT": 0
    },
    {
        "OBJECT_NAME": "AQUA",
        "OBJECT_ID": "2002-022A",
        "EPOCH": "2026-05-09T20:41:26.901024",
        "MEAN_MOTION": 14.62098315,
        "ECCENTRICITY": 0.0002122,
        "INCLINATION": 98.4256,
        "RA_OF_ASC_NODE": 98.3869,
        "ARG_OF_PERICENTER": 80.9239,
        "MEAN_ANOMALY": 309.2515,
        "EPHEMERIS_TYPE": 0,
        "CLASSIFICATION_TYPE": "U",
        "NORAD_CAT_ID": 27424,
        "ELEMENT_SET_NO": 999,
        "REV_AT_EPOCH": 27767,
        "BSTAR": 0.00012639,
        "MEAN_MOTION_DOT": 5.86e-06,
        "MEAN_MOTION_DDOT": 0
    },
    {
        "OBJECT_NAME": "CZ-4B R/B",
        "OBJECT_ID": "2002-024C",
        "EPOCH": "2026-05-09T18:30:11.268864",
        "MEAN_MOTION": 14.14558041,
        "ECCENTRICITY": 0.0049668,
        "INCLINATION": 98.8728,
        "RA_OF_ASC_NODE": 182.8342,
        "ARG_OF_PERICENTER": 208.3982,
        "MEAN_ANOMALY": 259.8424,
        "EPHEMERIS_TYPE": 0,
        "CLASSIFICATION_TYPE": "U",
        "NORAD_CAT_ID": 27432,
        "ELEMENT_SET_NO": 999,
        "REV_AT_EPOCH": 23787,
        "BSTAR": 3.5412e-05,
        "MEAN_MOTION_DOT": 2.4e-07,
        "MEAN_MOTION_DDOT": 0
    },
    {
        "OBJECT_NAME": "MIDORI II (ADEOS-II)",
        "OBJECT_ID": "2002-056A",
        "EPOCH": "2026-05-09T20:19:30.785376",
        "MEAN_MOTION": 14.29327639,
        "ECCENTRICITY": 0.0001476,
        "INCLINATION": 98.7855,
        "RA_OF_ASC_NODE": 88.7872,
        "ARG_OF_PERICENTER": 128.3202,
        "MEAN_ANOMALY": 231.8112,
        "EPHEMERIS_TYPE": 0,
        "CLASSIFICATION_TYPE": "U",
        "NORAD_CAT_ID": 27597,
        "ELEMENT_SET_NO": 999,
        "REV_AT_EPOCH": 21903,
        "BSTAR": 9.7764e-05,
        "MEAN_MOTION_DOT": 2.04e-06,
        "MEAN_MOTION_DDOT": 0
    },
    {
        "OBJECT_NAME": "H-2A R/B",
        "OBJECT_ID": "2002-056E",
        "EPOCH": "2026-05-09T20:08:36.153312",
        "MEAN_MOTION": 14.33803257,
        "ECCENTRICITY": 0.0069804,
        "INCLINATION": 98.329,
        "RA_OF_ASC_NODE": 87.917,
        "ARG_OF_PERICENTER": 340.5113,
        "MEAN_ANOMALY": 78.2861,
        "EPHEMERIS_TYPE": 0,
        "CLASSIFICATION_TYPE": "U",
        "NORAD_CAT_ID": 27601,
        "ELEMENT_SET_NO": 999,
        "REV_AT_EPOCH": 22287,
        "BSTAR": 8.8975e-05,
        "MEAN_MOTION_DOT": 2.12e-06,
        "MEAN_MOTION_DDOT": 0
    },
    {
        "OBJECT_NAME": "CZ-4B R/B",
        "OBJECT_ID": "2003-049C",
        "EPOCH": "2026-05-09T17:21:30.723264",
        "MEAN_MOTION": 14.55071932,
        "ECCENTRICITY": 0.0049016,
        "INCLINATION": 98.6898,
        "RA_OF_ASC_NODE": 127.041,
        "ARG_OF_PERICENTER": 46.4835,
        "MEAN_ANOMALY": 314.0418,
        "EPHEMERIS_TYPE": 0,
        "CLASSIFICATION_TYPE": "U",
        "NORAD_CAT_ID": 28059,
        "ELEMENT_SET_NO": 999,
        "REV_AT_EPOCH": 19547,
        "BSTAR": 7.4311e-05,
        "MEAN_MOTION_DOT": 2.74e-06,
        "MEAN_MOTION_DDOT": 0
    },
    {
        "OBJECT_NAME": "CZ-2C R/B",
        "OBJECT_ID": "2004-012C",
        "EPOCH": "2026-05-09T17:34:21.514080",
        "MEAN_MOTION": 15.72515101,
        "ECCENTRICITY": 0.0011786,
        "INCLINATION": 97.7106,
        "RA_OF_ASC_NODE": 201.1375,
        "ARG_OF_PERICENTER": 88.4753,
        "MEAN_ANOMALY": 271.7859,
        "EPHEMERIS_TYPE": 0,
        "CLASSIFICATION_TYPE": "U",
        "NORAD_CAT_ID": 28222,
        "ELEMENT_SET_NO": 999,
        "REV_AT_EPOCH": 21384,
        "BSTAR": 0.00046642,
        "MEAN_MOTION_DOT": 0.00062634,
        "MEAN_MOTION_DDOT": 0
    },
    {
        "OBJECT_NAME": "SL-16 R/B",
        "OBJECT_ID": "2004-021B",
        "EPOCH": "2026-05-09T08:10:11.225280",
        "MEAN_MOTION": 14.14601778,
        "ECCENTRICITY": 0.0006847,
        "INCLINATION": 70.998,
        "RA_OF_ASC_NODE": 105.2129,
        "ARG_OF_PERICENTER": 295.1946,
        "MEAN_ANOMALY": 64.8466,
        "EPHEMERIS_TYPE": 0,
        "CLASSIFICATION_TYPE": "U",
        "NORAD_CAT_ID": 28353,
        "ELEMENT_SET_NO": 999,
        "REV_AT_EPOCH": 13141,
        "BSTAR": 5.3216e-05,
        "MEAN_MOTION_DOT": 5.5e-07,
        "MEAN_MOTION_DDOT": 0
    },
    {
        "OBJECT_NAME": "CZ-4B R/B",
        "OBJECT_ID": "2004-035C",
        "EPOCH": "2026-05-09T19:33:46.966752",
        "MEAN_MOTION": 15.30036511,
        "ECCENTRICITY": 0.00331,
        "INCLINATION": 97.3404,
        "RA_OF_ASC_NODE": 163.3332,
        "ARG_OF_PERICENTER": 110.8486,
        "MEAN_ANOMALY": 249.6305,
        "EPHEMERIS_TYPE": 0,
        "CLASSIFICATION_TYPE": "U",
        "NORAD_CAT_ID": 28415,
        "ELEMENT_SET_NO": 999,
        "REV_AT_EPOCH": 18925,
        "BSTAR": 0.00020373,
        "MEAN_MOTION_DOT": 5.944e-05,
        "MEAN_MOTION_DDOT": 0
    },
    {
        "OBJECT_NAME": "CZ-2C R/B",
        "OBJECT_ID": "2004-046B",
        "EPOCH": "2026-05-09T18:25:37.083648",
        "MEAN_MOTION": 14.27015977,
        "ECCENTRICITY": 0.0138895,
        "INCLINATION": 98.1964,
        "RA_OF_ASC_NODE": 40.9443,
        "ARG_OF_PERICENTER": 334.7689,
        "MEAN_ANOMALY": 24.6751,
        "EPHEMERIS_TYPE": 0,
        "CLASSIFICATION_TYPE": "U",
        "NORAD_CAT_ID": 28480,
        "ELEMENT_SET_NO": 999,
        "REV_AT_EPOCH": 11721,
        "BSTAR": 5.216e-05,
        "MEAN_MOTION_DOT": 9.8e-07,
        "MEAN_MOTION_DDOT": 0
    }
]